[{"OBJECT_NAME":"STARLINK-34480","OBJECT_ID":"2025-129R","EPOCH":"2026-03-09T23:34:57.825408","MEAN_MOTION":14.98332626,"ECCENTRICITY":0.00034043,"INCLINATION":70.001,"RA_OF_ASC_NODE":73.6158,"ARG_OF_PERICENTER":268.4976,"MEAN_ANOMALY":91.5793,"EPHEMERIS_TYPE":0,"CLASSIFICATION_TYPE":"U","NORAD_CAT_ID":64427,"ELEMENT_SET_NO":999,"REV_AT_EPOCH":4133,"BSTAR":0.00032514467,"MEAN_MOTION_DOT":3.789e-5,"MEAN_MOTION_DDOT":0},{"OBJECT_NAME":"PEGASUS DEB","OBJECT_ID":"1994-029ACT","EPOCH":"2026-03-09T11:29:04.934976","MEAN_MOTION":13.7018265,"ECCENTRICITY":0.06036208,"INCLINATION":81.5086,"RA_OF_ASC_NODE":254.696,"ARG_OF_PERICENTER":195.8993,"MEAN_ANOMALY":162.246,"EPHEMERIS_TYPE":0,"CLASSIFICATION_TYPE":"U","NORAD_CAT_ID":24985,"ELEMENT_SET_NO":999,"REV_AT_EPOCH":58552,"BSTAR":0.0023741539,"MEAN_MOTION_DOT":7.826e-5,"MEAN_MOTION_DDOT":0}]
